1 08820U 76039A   03271.93277915  .00000004  00000-0  10000-3 0  9650
2 08820 109.8175 217.1028 0044480 279.2702  80.2821  6.38664453383685
